ONEWEB-0045             
1 45151U 20008W   23059.58956086 -.00000443  00000+0 -12849-2 0  9990
2 45151  87.8901 260.4027 0001443  93.2087 266.9206 13.11417861152522
ONEWEB-0045             
1 45151U 20008W   23059.81845082 -.00000474  00000+0 -13734-2 0  9997
2 45151  87.8901 260.3572 0001439  92.8877 267.2415 13.11417722152558
ONEWEB-0045             
1 45151U 20008W   23060.04734103 -.00000507  00000+0 -14676-2 0  9998
2 45151  87.8899 260.3119 0001419  93.4675 266.6615 13.11417274153369
ONEWEB-0045             
1 45151U 20008W   23060.81030818 -.00000554  00000+0 -15990-2 0  9997
2 45151  87.8900 260.1601 0001427  93.4132 266.7160 13.11416778152681
ONEWEB-0045             
1 45151U 20008W   23061.11549515 -.00000473  00000+0 -13714-2 0  9992
2 45151  87.8900 260.0991 0001396  93.6859 266.4428 13.11416338153503
ONEWEB-0045             
1 45151U 20008W   23061.80216668 -.00000496  00000+0 -14349-2 0  9998
2 45151  87.8899 259.9628 0001399  93.8924 266.2364 13.11415869152810
ONEWEB-0045             
1 45151U 20008W   23062.48883849 -.00000371  00000+0 -10821-2 0  9997
2 45151  87.8899 259.8265 0001404  94.3382 265.7906 13.11415480152902
ONEWEB-0045             
1 45151U 20008W   23062.48883849 -.00000371  00000+0 -10821-2 0  9997
2 45151  87.8899 259.8265 0001404  94.3382 265.7906 13.11415480153688
ONEWEB-0045             
1 45151U 20008W   23062.79402638 -.00000392  00000+0 -11407-2 0  9998
2 45151  87.8898 259.7658 0001405  94.6074 265.5215 13.11415207152940
